OBJECT_NAME,OBJECT_ID,EPOCH,MEAN_MOTION,ECCENTRICITY,INCLINATION,RA_OF_ASC_NODE,ARG_OF_PERICENTER,MEAN_ANOMALY,EPHEMERIS_TYPE,CLASSIFICATION_TYPE,NORAD_CAT_ID,ELEMENT_SET_NO,REV_AT_EPOCH,BSTAR,MEAN_MOTION_DOT,MEAN_MOTION_DDOT
TIANMU-1 21,2023-208C,2026-07-10T20:11:51.029376,15.35500988,.0006278,97.4518,311.7142,220.9780,139.0993,0,U,58662,999,14119,.18811E-3,.641E-4,0
TIANMU-1 22,2023-208D,2026-07-10T20:38:19.188384,15.31388449,.0002432,97.4513,308.2040,239.9745,120.1255,0,U,58663,999,14095,.16531E-3,.4932E-4,0
TIANMU-1 15,2024-004A,2026-07-10T19:43:40.196928,15.26885805,.0005789,97.4670,18.0129,247.2624,112.8004,0,U,58700,999,13938,.13382E-3,.346E-4,0
TIANMU-1 16,2024-004B,2026-07-10T21:03:17.468928,15.26988845,.0004306,97.4617,17.2872,266.2307,93.8440,0,U,58701,999,13939,.12981E-3,.3364E-4,0
TIANMU-1 17,2024-004C,2026-07-10T20:42:22.636800,15.26987123,.0003825,97.4644,17.7663,273.6302,86.4499,0,U,58702,999,13938,.14119E-3,.3665E-4,0
TIANMU-1 18,2024-004D,2026-07-10T20:07:35.859072,15.26902807,.0003496,97.4662,18.0044,245.6942,114.3932,0,U,58703,999,13938,.12729E-3,.3288E-4,0
INSAT-3DS,2024-033A,2026-07-10T10:34:21.684000,1.00271597,.00010778,0.1046,265.7903,223.3866,39.8494,0,U,58990,999,4730,0,-.146E-5,0
METEOR-M2 4,2024-039A,2026-07-10T21:19:41.615904,14.22431905,.0008227,98.7022,150.8903,99.4812,260.7296,0,U,59051,999,12263,.16936E-4,-.6E-7,0
GOES 19,2024-119A,2026-07-10T03:52:54.877728,1.00270419,.00005878,0.0073,145.0944,63.0042,63.0239,0,U,60133,999,719,0,-.237E-5,0
MTG-S1,2025-143A,2026-07-10T17:01:30.628128,1.00272726,.0003451,0.5871,343.9972,262.0727,297.5025,0,U,64723,999,365,0,.2E-7,0
METOP-SGA1,2025-172A,2026-07-10T14:33:32.534784,14.19818674,.0007304,98.6632,250.8392,346.0589,14.0384,0,U,65159,999,4711,.19202E-4,-.3E-7,0
FENGYUN 3H,2025-219A,2026-07-09T14:09:54.747936,14.19924262,.00012699,98.6772,130.9242,63.2177,296.9130,0,U,65815,999,4056,.30852092E-4,.22E-6,0
