TIANMU-1 21             
1 58662U 23208C   26191.84156284  .00006410  00000+0  18811-3 0  9991
2 58662  97.4518 311.7142 0006278 220.9780 139.0993 15.35500988141197
TIANMU-1 22             
1 58663U 23208D   26191.85994431  .00004932  00000+0  16531-3 0  9991
2 58663  97.4513 308.2040 0002432 239.9745 120.1255 15.31388449140957
TIANMU-1 15             
1 58700U 24004A   26191.82199302  .00003460  00000+0  13382-3 0  9995
2 58700  97.4670  18.0129 0005789 247.2624 112.8004 15.26885805139380
TIANMU-1 16             
1 58701U 24004B   26191.87728552  .00003364  00000+0  12981-3 0  9993
2 58701  97.4617  17.2872 0004306 266.2307  93.8440 15.26988845139392
TIANMU-1 17             
1 58702U 24004C   26191.86276200  .00003665  00000+0  14119-3 0  9990
2 58702  97.4644  17.7663 0003825 273.6302  86.4499 15.26987123139387
TIANMU-1 18             
1 58703U 24004D   26191.83860948  .00003288  00000+0  12729-3 0  9992
2 58703  97.4662  18.0044 0003496 245.6942 114.3932 15.26902807139387
INSAT-3DS               
1 58990U 24033A   26191.44052875 -.00000146  00000+0  00000+0 0  9997
2 58990   0.1046 265.7903 0001077 223.3866  39.8494  1.00271597 47304
METEOR-M2 4             
1 59051U 24039A   26191.88867611 -.00000006  00000+0  16936-4 0  9997
2 59051  98.7022 150.8903 0008227  99.4812 260.7296 14.22431905122635
GOES 19                 
1 60133U 24119A   26191.16174627 -.00000237  00000+0  00000+0 0  9994
2 60133   0.0073 145.0944 0000587  63.0042  63.0239  1.00270419  7191
MTG-S1                  
1 64723U 25143A   26191.70938227  .00000002  00000+0  00000+0 0  9994
2 64723   0.5871 343.9972 0003451 262.0727 297.5025  1.00272726  3652
METOP-SGA1              
1 65159U 25172A   26191.60662656 -.00000003  00000+0  19202-4 0  9990
2 65159  98.6632 250.8392 0007304 346.0589  14.0384 14.19818674 47112
FENGYUN 3H              
1 65815U 25219A   26190.59021699  .00000022  00000+0  30852-4 0  9998
2 65815  98.6772 130.9242 0001269  63.2177 296.9130 14.19924262 40566
